0 THORAD DELTA 1 DEB
1 08595U 74089DJ  13283.40653054  .00000042  00000-0  71320-3 0  1454
2 08595 101.4514 076.6337 0147693 027.1770 003.3881 12.25098539740234
0 THORAD DELTA 1 DEB
1 08595U 74089DJ  13286.03859023 -.00000030  00000-0  85304-4 0  1467
2 08595 101.4518 079.0428 0147687 022.2621 091.7417 12.25098741740556
0 THORAD DELTA 1 DEB
1 08595U 74089DJ  13288.39362594 -.00000027  00000-0  11055-3 0  1478
2 08595 101.4524 081.1986 0147680 017.8771 038.3095 12.25098801740843
0 THORAD DELTA 1 DEB
1 08595U 74089DJ  13291.01918487  .00000002  00000-0  36500-3 0  1484
2 08595 101.4530 083.6019 0147678 012.9896 097.9851 12.25098896741166
0 THORAD DELTA 1 DEB
1 08595U 74089DJ  13293.06161334  .00000028  00000-0  58925-3 0  1496
2 08595 101.4531 085.4717 0147686 009.1913 105.8396 12.25099373741411
0 THORAD DELTA 1 DEB
1 08595U 74089DJ  13295.41860088  .00000070  00000-0  95705-3 0  1505
2 08595 101.4530 087.6294 0147691 004.8098 061.0161 12.25099485741705
